[{"OBJECT_NAME":"BUFENG 1B","OBJECT_ID":"2019-032B","EPOCH":"2026-03-09T19:57:27.457920","MEAN_MOTION":15.25619535,"ECCENTRICITY":0.00242037,"INCLINATION":44.9701,"RA_OF_ASC_NODE":192.0248,"ARG_OF_PERICENTER":123.8847,"MEAN_ANOMALY":236.4342,"EPHEMERIS_TYPE":0,"CLASSIFICATION_TYPE":"U","NORAD_CAT_ID":44311,"ELEMENT_SET_NO":999,"REV_AT_EPOCH":37256,"BSTAR":0.00059375374,"MEAN_MOTION_DOT":0.00015236,"MEAN_MOTION_DDOT":0},{"OBJECT_NAME":"STARLINK-33955","OBJECT_ID":"2025-095N","EPOCH":"2026-03-08T17:14:22.340832","MEAN_MOTION":15.27596111,"ECCENTRICITY":0.00014572,"INCLINATION":43.0004,"RA_OF_ASC_NODE":181.3218,"ARG_OF_PERICENTER":257.97,"MEAN_ANOMALY":102.0989,"EPHEMERIS_TYPE":0,"CLASSIFICATION_TYPE":"U","NORAD_CAT_ID":63902,"ELEMENT_SET_NO":999,"REV_AT_EPOCH":4763,"BSTAR":0.0015598229,"MEAN_MOTION_DOT":0.00042932,"MEAN_MOTION_DDOT":0}]
